NORAD_CAT_ID,OBJECT_NAME,OBJECT_TYPE,EPOCH,MEAN_MOTION,ECCENTRICITY,INCLINATION,RA_OF_ASC_NODE,ARG_OF_PERICENTER,MEAN_ANOMALY,BSTAR,MEAN_MOTION_DOT,MEAN_MOTION_DDOT,TLE_LINE0,TLE_LINE1,TLE_LINE2,SEMIMAJOR_AXIS,PERIOD,APOGEE,PERIGEE,DECAYED
52485.0,STARLINK-3913,PAYLOAD,2024-08-13 01:42:17,15.08880101,0.0001337,53.2158,104.1924,108.9419,251.1718,0.00039201,5.963e-05,0.0,0 STARLINK-3913,1 52485U 22049AL  24226.07103627  .00005963  00000-0  39201-3 0  9994,2 52485  53.2158 104.1924 0001337 108.9419 251.1718 15.08880101125956,6917.758,95.435,540.548,538.698,0.0
52485.0,STARLINK-3913,PAYLOAD,2024-08-13 17:36:12,15.08815347,0.0001631,53.2147,101.2208,81.7853,278.3324,-0.00024566,-4.193e-05,0.0,0 STARLINK-3913,1 52485U 22049AL  24226.73347573 -.00004193  00000-0 -24566-3 0  9991,2 52485  53.2147 101.2208 0001631  81.7853 278.3324 15.08815347126050,6917.956,95.439,540.949,538.692,0.0
52485.0,STARLINK-3913,PAYLOAD,2024-08-13 22:22:22,15.08811313,0.0001884,53.2173,100.3301,79.7416,280.3789,-0.00029124,-4.917e-05,0.0,0 STARLINK-3913,1 52485U 22049AL  24226.93220172 -.00004917  00000-0 -29124-3 0  9997,2 52485  53.2173 100.3301 0001884  79.7416 280.3789 15.08811313125927,6917.968,95.439,541.136,538.53,0.0
52485.0,STARLINK-3913,PAYLOAD,2024-08-14 19:02:23,15.088194,0.0001607,53.2155,96.4638,91.2465,268.8711,-3.8963e-05,-9.08e-06,0.0,0 STARLINK-3913,1 52485U 22049AL  24227.79332621 -.00000908  00000-0 -38963-4 0  9993,2 52485  53.2155  96.4638 0001607  91.2465 268.8711 15.08819400126215,6917.943,95.439,540.92,538.697,0.0
52485.0,STARLINK-3913,PAYLOAD,2024-08-14 22:13:09,15.08838165,0.0002011,53.2152,95.8694,85.7072,274.415,3.3302e-05,2.42e-06,0.0,0 STARLINK-3913,1 52485U 22049AL  24227.92580045  .00000242  00000-0  33302-4 0  9994,2 52485  53.2152  95.8694 0002011  85.7072 274.4150 15.08838165126072,6917.886,95.438,541.142,538.36,0.0
52485.0,STARLINK-3913,PAYLOAD,2024-08-15 07:45:27,15.08844865,0.00017,53.2165,94.088,88.5172,271.6015,6.2179e-05,7.02e-06,0.0,0 STARLINK-3913,1 52485U 22049AL  24228.32323452  .00000702  00000-0  62179-4 0  9991,2 52485  53.2165  94.0880 0001700  88.5172 271.6015 15.08844865126130,6917.866,95.437,540.907,538.554,0.0
52485.0,STARLINK-3913,PAYLOAD,2024-08-15 22:03:56,15.08846858,0.0001782,53.2156,91.4109,89.3082,270.8115,0.00080702,0.00012581,0.0,0 STARLINK-3913,1 52485U 22049AL  24228.91940192  .00012581  00000-0  80702-3 0  9991,2 52485  53.2156  91.4109 0001782  89.3082 270.8115 15.08846858126220,6917.859,95.437,540.957,538.492,0.0
52485.0,STARLINK-3913,PAYLOAD,2024-08-16 12:22:23,15.08851111,0.0001304,53.2162,88.7308,52.765,307.3461,5.5157e-05,5.9e-06,0.0,0 STARLINK-3913,1 52485U 22049AL  24229.51555546  .00000590  00000-0  55157-4 0  9997,2 52485  53.2162  88.7308 0001304  52.7650 307.3461 15.08851111126477,6917.846,95.437,540.614,538.809,0.0
52485.0,STARLINK-3913,PAYLOAD,2024-08-17 01:05:29,15.08845053,0.0001451,53.2153,86.3537,82.6727,277.443,7.5081e-05,9.07e-06,0.0,0 STARLINK-3913,1 52485U 22049AL  24230.04547935  .00000907  00000-0  75081-4 0  9990,2 52485  53.2153  86.3537 0001451  82.6727 277.4430 15.08845053126555,6917.865,95.437,540.734,538.726,0.0
52485.0,STARLINK-3913,PAYLOAD,2024-08-17 21:45:30,15.0885271,0.0001378,53.2163,82.4866,83.1885,276.9264,-0.00022598,-3.884e-05,0.0,0 STARLINK-3913,1 52485U 22049AL  24230.90659966 -.00003884  00000-0 -22598-3 0  9996,2 52485  53.2163  82.4866 0001378  83.1885 276.9264 15.08852710126521,6917.842,95.437,540.66,538.753,0.0
52485.0,STARLINK-3913,PAYLOAD,2024-08-17 23:20:53,15.08856357,0.0001324,53.2158,82.1894,81.8353,278.2789,-0.00027046,-4.592e-05,0.0,0 STARLINK-3913,1 52485U 22049AL  24230.97283827 -.00004592  00000-0 -27046-3 0  9992,2 52485  53.2158  82.1894 0001324  81.8353 278.2789 15.08856357126538,6917.83,95.437,540.611,538.779,0.0
52485.0,STARLINK-3913,PAYLOAD,2024-08-18 13:39:21,15.08837086,0.00013,53.2174,79.5121,98.09,262.024,3.2439e-05,2.28e-06,0.0,0 STARLINK-3913,1 52485U 22049AL  24231.56900064  .00000228  00000-0  32439-4 0  9990,2 52485  53.2174  79.5121 0001300  98.0900 262.0240 15.08837086126789,6917.889,95.438,540.654,538.855,0.0
52485.0,STARLINK-3913,PAYLOAD,2024-08-18 20:00:53,15.08846506,0.0001396,53.2157,78.323,117.4188,242.6946,2.1196e-05,4.9e-07,0.0,0 STARLINK-3913,1 52485U 22049AL  24231.83395295  .00000049  00000-0  21196-4 0  9993,2 52485  53.2157  78.3230 0001396 117.4188 242.6946 15.08846506126826,6917.861,95.437,540.691,538.76,0.0
52485.0,STARLINK-3913,PAYLOAD,2024-08-18 21:36:16,15.08844926,0.0001228,53.216,78.026,90.8331,269.2801,0.00010096,1.319e-05,0.0,0 STARLINK-3913,1 52485U 22049AL  24231.90019360  .00001319  00000-0  10096-3 0  9994,2 52485  53.2160  78.0260 0001228  90.8331 269.2801 15.08844926126670,6917.865,95.437,540.58,538.881,0.0
52485.0,STARLINK-3913,PAYLOAD,2024-08-19 13:30:08,15.08835218,0.000138,53.217,75.0576,70.4504,289.6637,9.5119e-05,1.226e-05,0.0,0 STARLINK-3913,1 52485U 22049AL  24232.56260147  .00001226  00000-0  95119-4 0  9995,2 52485  53.2170  75.0576 0001380  70.4504 289.6637 15.08835218126939,6917.895,95.438,540.715,538.805,0.0
52485.0,STARLINK-3913,PAYLOAD,2024-08-20 06:59:22,15.08842297,0.0001244,53.2169,71.7841,86.0177,274.0957,4.9606e-05,5.02e-06,0.0,0 STARLINK-3913,1 52485U 22049AL  24233.29123823  .00000502  00000-0  49606-4 0  9991,2 52485  53.2169  71.7841 0001244  86.0177 274.0957 15.08842297126885,6917.873,95.437,540.599,538.878,0.0
52485.0,STARLINK-3913,PAYLOAD,2024-08-20 19:42:27,15.08849803,0.0001358,53.2169,69.4056,79.4688,280.6457,9.7501e-05,1.265e-05,0.0,0 STARLINK-3913,1 52485U 22049AL  24233.82115204  .00001265  00000-0  97501-4 0  9998,2 52485  53.2169  69.4056 0001358  79.4688 280.6457 15.08849803127122,6917.85,95.437,540.655,538.776,0.0
52485.0,STARLINK-3913,PAYLOAD,2024-08-20 22:53:13,15.08852429,0.0001173,53.2165,68.8096,85.8087,274.3039,0.00012942,1.773e-05,0.0,0 STARLINK-3913,1 52485U 22049AL  24233.95362828  .00001773  00000-0  12942-3 0  9997,2 52485  53.2165  68.8096 0001173  85.8087 274.3039 15.08852429126981,6917.842,95.437,540.519,538.896,0.0
52485.0,STARLINK-3913,PAYLOAD,2024-08-21 19:33:14,15.08841928,0.0001175,53.2175,64.9389,112.6363,247.4753,-1.4092e-05,-5.12e-06,0.0,0 STARLINK-3913,1 52485U 22049AL  24234.81475677 -.00000512  00000-0 -14092-4 0  9991,2 52485  53.2175  64.9389 0001175 112.6363 247.4753 15.08841928127114,6917.874,95.437,540.552,538.927,0.0
52485.0,STARLINK-3913,PAYLOAD,2024-08-21 22:44:01,15.08840561,0.0001211,53.2176,64.3448,108.1966,251.9158,-1.8883e-05,-5.88e-06,0.0,0 STARLINK-3913,1 52485U 22049AL  24234.94723775 -.00000588  00000-0 -18883-4 0  9995,2 52485  53.2176  64.3448 0001211 108.1966 251.9158 15.08840561127295,6917.879,95.438,540.581,538.906,0.0
